OBJECT C                
1 57582U 23117C   25283.27087744  .00021188  00000+0  76081-3 0  9994
2 57582  97.4342 357.8172 0009175  54.7472 305.4625 15.28653702120234
